NORAD_CAT_ID,OBJECT_NAME,OBJECT_TYPE,EPOCH,MEAN_MOTION,ECCENTRICITY,INCLINATION,RA_OF_ASC_NODE,ARG_OF_PERICENTER,MEAN_ANOMALY,BSTAR,MEAN_MOTION_DOT,MEAN_MOTION_DDOT,TLE_LINE0,TLE_LINE1,TLE_LINE2,SEMIMAJOR_AXIS,PERIOD,APOGEE,PERIGEE,DECAYED
49136.0,STARLINK-3084,PAYLOAD,2023-11-02 08:26:20,14.98272216,0.000265,70.0008,278.6238,269.7924,90.2932,-4.9507e-05,-6.83e-06,0.0,0 STARLINK-3084,1 49136U 21082G   23306.35162483 -.00000683  00000-0 -49507-4 0  9990,2 49136  70.0008 278.6238 0002650 269.7924  90.2932 14.98272216117914,6950.372,96.111,574.078,570.395,0.0
49136.0,STARLINK-3084,PAYLOAD,2023-11-02 21:15:20,14.98330676,0.0003129,70.0012,277.2775,269.7507,90.3294,0.00086961,0.00010299,0.0,0 STARLINK-3084,1 49136U 21082G   23306.88565041  .00010299  00000-0  86961-3 0  9991,2 49136  70.0012 277.2775 0003129 269.7507  90.3294 14.98330676117994,6950.191,96.107,574.231,569.881,0.0
49136.0,STARLINK-3084,PAYLOAD,2023-11-03 05:16:01,14.98323063,0.0002869,69.9992,276.4353,268.5926,91.4904,0.00030029,3.491e-05,0.0,0 STARLINK-3084,1 49136U 21082G   23307.21946745  .00003491  00000-0  30029-3 0  9993,2 49136  69.9992 276.4353 0002869 268.5926  91.4904 14.98323063118042,6950.214,96.107,574.073,570.085,0.0
49136.0,STARLINK-3084,PAYLOAD,2023-11-03 08:28:21,14.9828236,0.0003015,69.9996,276.0983,265.6485,94.4329,-0.00014288,-1.795e-05,0.0,0 STARLINK-3084,1 49136U 21082G   23307.35302118 -.00001795  00000-0 -14288-3 0  9994,2 49136  69.9996 276.0983 0003015 265.6485  94.4329 14.98282360118063,6950.34,96.11,574.301,570.11,0.0
49136.0,STARLINK-3084,PAYLOAD,2023-11-03 21:17:22,14.98332196,0.0002772,69.9996,274.7514,270.8502,89.2339,8.135e-05,8.78e-06,0.0,0 STARLINK-3084,1 49136U 21082G   23307.88706639  .00000878  00000-0  81350-4 0  9992,2 49136  69.9996 274.7514 0002772 270.8502  89.2339 14.98332196118140,6950.186,96.107,573.978,570.125,0.0
49136.0,STARLINK-3084,PAYLOAD,2023-11-04 03:41:54,14.98338803,0.0002738,69.9996,274.0783,265.5208,94.5638,0.00016292,1.852e-05,0.0,0 STARLINK-3084,1 49136U 21082G   23308.15410019  .00001852  00000-0  16292-3 0  9992,2 49136  69.9996 274.0783 0002738 265.5208  94.5638 14.98338803118183,6950.166,96.106,573.934,570.128,0.0
49136.0,STARLINK-3084,PAYLOAD,2023-11-04 08:30:19,14.98323267,0.0002481,69.9998,273.5734,258.3431,101.745,0.00031881,3.712e-05,0.0,0 STARLINK-3084,1 49136U 21082G   23308.35438761  .00003712  00000-0  31881-3 0  9996,2 49136  69.9998 273.5734 0002481 258.3431 101.7450 14.98323267118213,6950.214,96.107,573.803,570.354,0.0
49136.0,STARLINK-3084,PAYLOAD,2023-11-04 14:54:50,14.98349706,0.000257,70.0003,272.899,274.0043,86.0822,-0.00018444,-2.294e-05,0.0,0 STARLINK-3084,1 49136U 21082G   23308.62141865 -.00002294  00000-0 -18444-3 0  9998,2 49136  70.0003 272.8990 0002570 274.0043  86.0822 14.98349706118250,6950.132,96.106,573.783,570.211,0.0
49136.0,STARLINK-3084,PAYLOAD,2023-11-04 22:55:31,14.98337478,0.0002827,70.0001,272.0576,269.33,90.7535,4.6709e-05,4.64e-06,0.0,0 STARLINK-3084,1 49136U 21082G   23308.95522155  .00000464  00000-0  46709-4 0  9990,2 49136  70.0001 272.0576 0002827 269.3300  90.7535 14.98337478118300,6950.17,96.107,574.0,570.07,0.0
49136.0,STARLINK-3084,PAYLOAD,2023-11-05 03:43:55,14.9833782,0.0002814,69.9996,271.554,270.1167,89.967,0.00012595,1.41e-05,0.0,0 STARLINK-3084,1 49136U 21082G   23309.15549888  .00001410  00000-0  12595-3 0  9992,2 49136  69.9996 271.5540 0002814 270.1167  89.9670 14.98337820118336,6950.169,96.106,573.989,570.078,0.0
49136.0,STARLINK-3084,PAYLOAD,2023-11-05 06:56:10,14.98343359,0.0002688,69.9993,271.2161,266.1819,93.9033,0.00017498,1.996e-05,0.0,0 STARLINK-3084,1 49136U 21082G   23309.28901390  .00001996  00000-0  17498-3 0  9992,2 49136  69.9993 271.2161 0002688 266.1819  93.9033 14.98343359118351,6950.152,96.106,573.885,570.148,0.0
49136.0,STARLINK-3084,PAYLOAD,2023-11-05 14:56:49,14.98399784,0.0002849,70.0009,270.374,269.9376,90.1456,-0.0010943,-0.00013149,0.0,0 STARLINK-3084,1 49136U 21082G   23309.62279587 -.00013149  00000-0 -10943-2 0  9998,2 49136  70.0009 270.3740 0002849 269.9376  90.1456 14.98399784118400,6949.977,96.103,573.822,569.862,0.0
49136.0,STARLINK-3084,PAYLOAD,2023-11-05 22:57:31,14.98338215,0.0002705,70.0002,269.5338,274.894,85.191,0.00012695,1.422e-05,0.0,0 STARLINK-3084,1 49136U 21082G   23309.95661602  .00001422  00000-0  12695-3 0  9993,2 49136  70.0002 269.5338 0002705 274.8940  85.1910 14.98338215118455,6950.167,96.106,573.913,570.152,0.0
49136.0,STARLINK-3084,PAYLOAD,2023-11-06 03:45:54,14.98352502,0.0002441,69.9994,269.0278,268.6605,91.4274,0.00025911,3.002e-05,0.0,0 STARLINK-3084,1 49136U 21082G   23310.15688251  .00003002  00000-0  25911-3 0  9997,2 49136  69.9994 269.0278 0002441 268.6605  91.4274 14.98352502118487,6950.123,96.106,573.685,570.292,0.0
49136.0,STARLINK-3084,PAYLOAD,2023-11-06 06:58:10,14.98351039,0.0002562,69.9998,268.6918,270.5111,89.5755,0.00023003,2.654e-05,0.0,0 STARLINK-3084,1 49136U 21082G   23310.29040247  .00002654  00000-0  23003-3 0  9991,2 49136  69.9998 268.6918 0002562 270.5111  89.5755 14.98351039118504,6950.128,96.106,573.773,570.212,0.0
49136.0,STARLINK-3084,PAYLOAD,2023-11-06 14:58:53,14.98322044,0.000266,70.0003,267.8491,268.0508,92.0347,-0.00011793,-1.499e-05,0.0,0 STARLINK-3084,1 49136U 21082G   23310.62422735 -.00001499  00000-0 -11793-3 0  9995,2 49136  70.0003 267.8491 0002660 268.0508  92.0347 14.98322044118557,6950.217,96.108,573.931,570.234,0.0
49136.0,STARLINK-3084,PAYLOAD,2023-11-06 21:23:26,14.98317573,0.0001939,69.9997,267.1775,270.8435,89.2501,-0.00013964,-1.758e-05,0.0,0 STARLINK-3084,1 49136U 21082G   23310.89127534 -.00001758  00000-0 -13964-3 0  9993,2 49136  69.9997 267.1775 0001939 270.8435  89.2501 14.98317573118597,6950.231,96.108,573.444,570.749,0.0
49136.0,STARLINK-3084,PAYLOAD,2023-11-07 03:47:59,14.98307443,0.0002555,69.9997,266.5025,257.5563,102.531,-0.00021158,-2.615e-05,0.0,0 STARLINK-3084,1 49136U 21082G   23311.15832443 -.00002615  00000-0 -21158-3 0  9992,2 49136  69.9997 266.5025 0002555 257.5563 102.5310 14.98307443118634,6950.263,96.108,573.903,570.352,0.0
49136.0,STARLINK-3084,PAYLOAD,2023-11-07 07:00:14,14.98305462,0.0002472,70.0009,266.166,257.982,102.1062,-0.00035045,-4.269e-05,0.0,0 STARLINK-3084,1 49136U 21082G   23311.29183786 -.00004269  00000-0 -35045-3 0  9993,2 49136  70.0009 266.1660 0002472 257.9820 102.1062 14.98305462118651,6950.269,96.109,573.852,570.416,0.0
49136.0,STARLINK-3084,PAYLOAD,2023-11-07 15:00:54,14.98316484,0.0002873,70.001,265.3247,262.0454,98.0379,-0.00021692,-2.679e-05,0.0,0 STARLINK-3084,1 49136U 21082G   23311.62563438 -.00002679  00000-0 -21692-3 0  9992,2 49136  70.0010 265.3247 0002873 262.0454  98.0379 14.98316484118706,6950.235,96.108,574.096,570.103,0.0
49136.0,STARLINK-3084,PAYLOAD,2023-11-08 07:02:15,14.9833073,0.0002729,70.0005,263.6418,262.0692,98.0157,0.00054588,6.426e-05,0.0,0 STARLINK-3084,1 49136U 21082G   23312.29323679  .00006426  00000-0  54588-3 0  9999,2 49136  70.0005 263.6418 0002729 262.0692  98.0157 14.98330730118800,6950.191,96.107,573.952,570.159,0.0
49136.0,STARLINK-3084,PAYLOAD,2023-11-08 21:27:28,14.98338326,0.0002744,70.0005,262.1263,262.0462,98.0386,0.0007941,9.397e-05,0.0,0 STARLINK-3084,1 49136U 21082G   23312.89407520  .00009397  00000-0  79410-3 0  9994,2 49136  70.0005 262.1263 0002744 262.0462  98.0386 14.98338326118896,6950.167,96.106,573.939,570.125,0.0
49136.0,STARLINK-3084,PAYLOAD,2023-11-09 03:51:59,14.98355541,0.000273,70.0008,261.4546,255.3313,104.7544,0.00097474,0.00011564,0.0,0 STARLINK-3084,1 49136U 21082G   23313.16110818  .00011564  00000-0  97474-3 0  9995,2 49136  70.0008 261.4546 0002730 255.3313 104.7544 14.98355541118934,6950.114,96.105,573.876,570.082,0.0
49136.0,STARLINK-3084,PAYLOAD,2023-11-09 07:04:15,14.98367377,0.0002754,70.0009,261.1177,257.4031,102.682,0.0011107,0.00013197,0.0,0 STARLINK-3084,1 49136U 21082G   23313.29462330  .00013197  00000-0  11107-2 0  9990,2 49136  70.0009 261.1177 0002754 257.4031 102.6820 14.98367377118954,6950.077,96.105,573.856,570.028,0.0
49136.0,STARLINK-3084,PAYLOAD,2023-11-09 23:05:36,14.98341585,0.0002778,70.0005,259.4329,263.2745,96.8098,-6.5827e-05,-8.79e-06,0.0,0 STARLINK-3084,1 49136U 21082G   23313.96222251 -.00000879  00000-0 -65827-4 0  9995,2 49136  70.0005 259.4329 0002778 263.2745  96.8098 14.98341585119058,6950.157,96.106,573.953,570.091,0.0
49136.0,STARLINK-3084,PAYLOAD,2023-11-10 03:54:00,14.98342355,0.0002798,70.0027,258.9339,232.9103,127.18,-0.00013522,-1.706e-05,0.0,0 STARLINK-3084,1 49136U 21082G   23314.16250086 -.00001706  00000-0 -13522-3 0  9999,2 49136  70.0027 258.9339 0002798 232.9103 127.1800 14.98342355119088,6950.155,96.106,573.964,570.075,0.0
49136.0,STARLINK-3084,PAYLOAD,2023-11-10 13:30:48,14.98337562,0.0002621,70.001,257.9183,267.5162,92.5697,-4.4113e-05,-6.19e-06,0.0,0 STARLINK-3084,1 49136U 21082G   23314.56306422 -.00000619  00000-0 -44113-4 0  9992,2 49136  70.0010 257.9183 0002621 267.5162  92.5697 14.98337562119140,6950.17,96.107,573.856,570.213,0.0
49136.0,STARLINK-3084,PAYLOAD,2023-11-10 21:31:29,14.98332835,0.0002715,70.0008,257.0768,266.9379,93.147,0.00011826,1.318e-05,0.0,0 STARLINK-3084,1 49136U 21082G   23314.89686504  .00001318  00000-0  11826-3 0  9999,2 49136  70.0008 257.0768 0002715 266.9379  93.1470 14.98332835119193,6950.184,96.107,573.936,570.162,0.0
49136.0,STARLINK-3084,PAYLOAD,2023-11-11 05:32:09,14.98340096,0.0002657,70.0012,256.2361,263.3889,96.6967,1.4639e-05,8.2e-07,0.0,0 STARLINK-3084,1 49136U 21082G   23315.23066154  .00000082  00000-0  14639-4 0  9994,2 49136  70.0012 256.2361 0002657 263.3889  96.6967 14.98340096119243,6950.162,96.106,573.873,570.18,0.0
49136.0,STARLINK-3084,PAYLOAD,2023-11-11 19:57:21,14.9833494,0.0002367,70.0017,254.7215,254.1769,105.9129,0.00026081,3.021e-05,0.0,0 STARLINK-3084,1 49136U 21082G   23315.83150368  .00003021  00000-0  26081-3 0  9990,2 49136  70.0017 254.7215 0002367 254.1769 105.9129 14.98334940119337,6950.178,96.107,573.688,570.398,0.0
